{
  "type": "FeatureCollection",
  "features": [
    {
      "type": "Feature",
      "properties": {
        "norad_id": 66990,
        "name": "TJS-22",
        "group": "last-30-days",
        "lat": -15.491122196487257,
        "lon": -109.39897743352654,
        "alt_km": 16738.82072486367,
        "timestamp": "2025-12-16T03:53:25.818831+00:00",
        "meta_object_name": "TJS-22",
        "meta_object_id": "2025-290A",
        "meta_epoch": "2025-12-10T07:11:32.845344",
        "meta_mean_motion": 2.15443148,
        "meta_eccentricity": 0.6664534,
        "meta_inclination": 20.1261,
        "meta_ra_of_asc_node": 301.1464,
        "meta_arg_of_pericenter": 180.6877,
        "meta_mean_anomaly": 177.6237,
        "meta_ephemeris_type": 0,
        "meta_classification_type": "U",
        "meta_norad_cat_id": 66990,
        "meta_element_set_no": 999,
        "meta_rev_at_epoch": 3,
        "meta_bstar": 0.079788243,
        "meta_mean_motion_dot": -3.8e-07,
        "meta_mean_motion_ddot": 0,
        "tle_line1": "1 66990U 25290A   25344.29968571 -.00000038  00000+0  79788-1 0  9994",
        "tle_line2": "2 66990  20.1261 301.1464 6664534 180.6877 177.6237  2.15443148    32"
      },
      "geometry": {
        "type": "Point",
        "coordinates": [
          -109.39897743352654,
          -15.491122196487257
        ]
      }
    },
    {
      "type": "Feature",
      "properties": {
        "norad_id": 66991,
        "name": "CZ-3B R/B",
        "group": "last-30-days",
        "lat": 1.8435839282612194,
        "lon": -56.31432119743232,
        "alt_km": 34402.140219383364,
        "timestamp": "2025-12-16T03:53:25.818845+00:00",
        "meta_object_name": "CZ-3B R/B",
        "meta_object_id": "2025-290B",
        "meta_epoch": "2025-12-15T17:23:33.043200",
        "meta_mean_motion": 2.38388611,
        "meta_eccentricity": 0.7240884,
        "meta_inclination": 28.4636,
        "meta_ra_of_asc_node": 300.4666,
        "meta_arg_of_pericenter": 182.7002,
        "meta_mean_anomaly": 168.625,
        "meta_ephemeris_type": 0,
        "meta_classification_type": "U",
        "meta_norad_cat_id": 66991,
        "meta_element_set_no": 999,
        "meta_rev_at_epoch": 16,
        "meta_bstar": 0.00075879,
        "meta_mean_motion_dot": 0.00057911,
        "meta_mean_motion_ddot": -2.0514e-07,
        "tle_line1": "1 66991U 25290B   25349.72468800  .00057911 -20514-6  75879-3 0  9998",
        "tle_line2": "2 66991  28.4636 300.4666 7240884 182.7002 168.6250  2.38388611   165"
      },
      "geometry": {
        "type": "Point",
        "coordinates": [
          -56.31432119743232,
          1.8435839282612194
        ]
      }
    },
    {
      "type": "Feature",
      "properties": {
        "norad_id": 66993,
        "name": "2025-292A",
        "group": "last-30-days",
        "lat": 18.848662862670654,
        "lon": -114.68865523344972,
        "alt_km": 554.8773625694439,
        "timestamp": "2025-12-16T03:53:25.818856+00:00",
        "meta_object_name": "2025-292A",
        "meta_object_id": "2025-292A",
        "meta_epoch": "2025-12-15T06:25:33.003840",
        "meta_mean_motion": 15.04512099,
        "meta_eccentricity": 0.00138015,
        "meta_inclination": 97.6536,
        "meta_ra_of_asc_node": 61.7945,
        "meta_arg_of_pericenter": 263.4645,
        "meta_mean_anomaly": 96.501,
        "meta_ephemeris_type": 0,
        "meta_classification_type": "U",
        "meta_norad_cat_id": 66993,
        "meta_element_set_no": 999,
        "meta_rev_at_epoch": 77,
        "meta_bstar": 0.00023700354,
        "meta_mean_motion_dot": 3.264e-05,
        "meta_mean_motion_ddot": 0,
        "tle_line1": "1 66993U 25292A   25349.26774310  .00003264  00000+0  23700-3 0  9995",
        "tle_line2": "2 66993  97.6536  61.7945 0013801 263.4645  96.5010 15.04512099   777"
      },
      "geometry": {
        "type": "Point",
        "coordinates": [
          -114.68865523344972,
          18.848662862670654
        ]
      }
    },
    {
      "type": "Feature",
      "properties": {
        "norad_id": 66994,
        "name": "2025-292B",
        "group": "last-30-days",
        "lat": 17.84285524355422,
        "lon": -114.83764342396368,
        "alt_km": 554.7761525868145,
        "timestamp": "2025-12-16T03:53:25.818866+00:00",
        "meta_object_name": "2025-292B",
        "meta_object_id": "2025-292B",
        "meta_epoch": "2025-12-15T08:01:05.705184",
        "meta_mean_motion": 15.04564593,
        "meta_eccentricity": 0.00135917,
        "meta_inclination": 97.6546,
        "meta_ra_of_asc_node": 61.861,
        "meta_arg_of_pericenter": 263.8153,
        "meta_mean_anomaly": 96.1525,
        "meta_ephemeris_type": 0,
        "meta_classification_type": "U",
        "meta_norad_cat_id": 66994,
        "meta_element_set_no": 999,
        "meta_rev_at_epoch": 78,
        "meta_bstar": 0.00029484117,
        "meta_mean_motion_dot": 4.081e-05,
        "meta_mean_motion_ddot": 0,
        "tle_line1": "1 66994U 25292B   25349.33409381  .00004081  00000+0  29484-3 0  9990",
        "tle_line2": "2 66994  97.6546  61.8610 0013591 263.8153  96.1525 15.04564593   787"
      },
      "geometry": {
        "type": "Point",
        "coordinates": [
          -114.83764342396368,
          17.84285524355422
        ]
      }
    },
    {
      "type": "Feature",
      "properties": {
        "norad_id": 66995,
        "name": "2025-292C",
        "group": "last-30-days",
        "lat": 17.739507752900405,
        "lon": -114.85368287819111,
        "alt_km": 554.7961864080116,
        "timestamp": "2025-12-16T03:53:25.818876+00:00",
        "meta_object_name": "2025-292C",
        "meta_object_id": "2025-292C",
        "meta_epoch": "2025-12-15T06:25:18.226848",
        "meta_mean_motion": 15.04571767,
        "meta_eccentricity": 0.00138465,
        "meta_inclination": 97.6537,
        "meta_ra_of_asc_node": 61.7948,
        "meta_arg_of_pericenter": 264.153,
        "meta_mean_anomaly": 95.8118,
        "meta_ephemeris_type": 0,
        "meta_classification_type": "U",
        "meta_norad_cat_id": 66995,
        "meta_element_set_no": 999,
        "meta_rev_at_epoch": 77,
        "meta_bstar": 0.00031173962,
        "meta_mean_motion_dot": 4.32e-05,
        "meta_mean_motion_ddot": 0,
        "tle_line1": "1 66995U 25292C   25349.26757207  .00004320  00000+0  31174-3 0  9991",
        "tle_line2": "2 66995  97.6537  61.7948 0013846 264.1530  95.8118 15.04571767   771"
      },
      "geometry": {
        "type": "Point",
        "coordinates": [
          -114.85368287819111,
          17.739507752900405
        ]
      }
    },
    {
      "type": "Feature",
      "properties": {
        "norad_id": 66996,
        "name": "2025-292D",
        "group": "last-30-days",
        "lat": 16.631270892801687,
        "lon": -115.01719993685603,
        "alt_km": 554.9957013231278,
        "timestamp": "2025-12-16T03:53:25.818886+00:00",
        "meta_object_name": "2025-292D",
        "meta_object_id": "2025-292D",
        "meta_epoch": "2025-12-15T08:00:48.769920",
        "meta_mean_motion": 15.04615233,
        "meta_eccentricity": 0.001301,
        "meta_inclination": 97.6531,
        "meta_ra_of_asc_node": 61.8606,
        "meta_arg_of_pericenter": 266.6121,
        "meta_mean_anomaly": 93.3617,
        "meta_ephemeris_type": 0,
        "meta_classification_type": "U",
        "meta_norad_cat_id": 66996,
        "meta_element_set_no": 999,
        "meta_rev_at_epoch": 78,
        "meta_bstar": 0.00022695449,
        "meta_mean_motion_dot": 3.131e-05,
        "meta_mean_motion_ddot": 0,
        "tle_line1": "1 66996U 25292D   25349.33389780  .00003131  00000+0  22695-3 0  9994",
        "tle_line2": "2 66996  97.6531  61.8606 0013010 266.6121  93.3617 15.04615233   789"
      },
      "geometry": {
        "type": "Point",
        "coordinates": [
          -115.01719993685603,
          16.631270892801687
        ]
      }
    },
    {
      "type": "Feature",
      "properties": {
        "norad_id": 66997,
        "name": "2025-292E",
        "group": "last-30-days",
        "lat": 14.95408567140458,
        "lon": -115.25833196554773,
        "alt_km": 554.9287144846066,
        "timestamp": "2025-12-16T03:53:25.818896+00:00",
        "meta_object_name": "2025-292E",
        "meta_object_id": "2025-292E",
        "meta_epoch": "2025-12-15T08:00:25.473888",
        "meta_mean_motion": 15.04696194,
        "meta_eccentricity": 0.00133956,
        "meta_inclination": 97.6551,
        "meta_ra_of_asc_node": 61.8621,
        "meta_arg_of_pericenter": 267.5196,
        "meta_mean_anomaly": 92.4496,
        "meta_ephemeris_type": 0,
        "meta_classification_type": "U",
        "meta_norad_cat_id": 66997,
        "meta_element_set_no": 999,
        "meta_rev_at_epoch": 77,
        "meta_bstar": 0.0002434354,
        "meta_mean_motion_dot": 3.37e-05,
        "meta_mean_motion_ddot": 0,
        "tle_line1": "1 66997U 25292E   25349.33362817  .00003370  00000+0  24344-3 0  9995",
        "tle_line2": "2 66997  97.6551  61.8621 0013395 267.5196  92.4496 15.04696194   776"
      },
      "geometry": {
        "type": "Point",
        "coordinates": [
          -115.25833196554773,
          14.95408567140458
        ]
      }
    }
  ]
}